STARLINK-31091          
1 58629U 23203M   26068.06615182 -.00000680  00000+0 -15186-4 0  9991
2 58629  43.0022  74.2534 0000679 241.6419 118.4364 15.27574347123421
TEVEL2-6                
1 63215U 25052F   26068.64958975  .00021046  00000+0  70909-3 0  9996
2 63215  97.4016 325.0381 0004769  95.6604 264.5181 15.30760889 54861
